ONEWEB-0549             
1 56051U 23043F   24345.44586246  .00000152  00000+0  33704-3 0  9993
2 56051  87.9295 354.3011 0001376  90.8860 269.2431 13.21825964 85072
ONEWEB-0550             
1 56052U 23043G   24345.50893880  .00000000  00000+0 -31115-4 0  9994
2 56052  87.9292 354.2900 0001900  87.4466 272.6886 13.21828292 85083
ONEWEB-0551             
1 56053U 23043H   24345.45789313  .00000150  00000+0  36416-3 0  9997
2 56053  87.9074   9.4766 0001547  89.6329 270.4979 13.15549384 83598
ONEWEB-0552             
1 56054U 23043J   24345.42693014  .00000037  00000+0  57846-4 0  9992
2 56054  87.9290 354.3157 0001726  80.8270 279.3059 13.21828421 85073
ONEWEB-0553             
1 56055U 23043K   24345.46807373 -.00000003  00000+0 -40631-4 0  9991
2 56055  87.9080 339.0967 0001868  98.6737 261.4606 13.16592423 86112
ONEWEB-0554             
1 56056U 23043L   24345.45543175  .00000054  00000+0  10644-3 0  9992
2 56056  87.9081 339.1251 0002180  74.0346 286.1025 13.16595143 86091
ONEWEB-0555             
1 56057U 23043M   24345.49341722  .00000069  00000+0  14764-3 0  9994
2 56057  87.9078 339.0855 0002366 101.3170 258.8227 13.16593595 86103
ONEWEB-0557             
1 56058U 23043N   24345.43168173  .00000163  00000+0  39304-3 0  9998
2 56058  87.9077 339.1224 0002776  94.6163 265.5285 13.16594488 86094
